NORAD_CAT_ID,OBJECT_NAME,OBJECT_TYPE,EPOCH,MEAN_MOTION,ECCENTRICITY,INCLINATION,RA_OF_ASC_NODE,ARG_OF_PERICENTER,MEAN_ANOMALY,BSTAR,MEAN_MOTION_DOT,MEAN_MOTION_DDOT,TLE_LINE0,TLE_LINE1,TLE_LINE2,SEMIMAJOR_AXIS,PERIOD,APOGEE,PERIGEE,DECAYED
52100.0,STARLINK-3702,PAYLOAD,2023-10-26 12:00:57,15.08847007,0.0001571,53.2194,13.1072,101.6061,258.5107,7.2314e-05,8.63e-06,0.0,0 STARLINK-3702,1 52100U 22029N   23299.50066614  .00000863  00000-0  72314-4 0  9994,2 52100  53.2194  13.1072 0001571 101.6061 258.5107 15.08847007 90048,6917.859,95.437,540.811,538.637,0.0
52100.0,STARLINK-3702,PAYLOAD,2023-10-27 13:27:06,15.08856378,0.0001513,53.2198,8.3506,95.8049,264.3115,0.00015447,2.172e-05,0.0,0 STARLINK-3702,1 52100U 22029N   23300.56049513  .00002172  00000-0  15447-3 0  9990,2 52100  53.2198   8.3506 0001513  95.8049 264.3115 15.08856378 90209,6917.83,95.437,540.742,538.649,0.0
52100.0,STARLINK-3702,PAYLOAD,2023-10-27 15:02:29,15.08858977,0.000153,53.2188,8.0517,102.388,257.7284,0.00016798,2.388e-05,0.0,0 STARLINK-3702,1 52100U 22029N   23300.62673149  .00002388  00000-0  16798-3 0  9994,2 52100  53.2188   8.0517 0001530 102.3880 257.7284 15.08858977 90214,6917.822,95.436,540.746,538.629,0.0
52100.0,STARLINK-3702,PAYLOAD,2023-10-27 21:24:04,15.0883529,0.0003376,53.2188,6.8613,81.6626,278.4749,3.5949e-05,2.83e-06,0.0,0 STARLINK-3702,1 52100U 22029N   23300.89171754  .00000283  00000-0  35949-4 0  9990,2 52100  53.2188   6.8613 0003376  81.6626 278.4749 15.08835290 90257,6917.895,95.438,542.095,537.424,0.0
52100.0,STARLINK-3702,PAYLOAD,2023-10-28 11:42:32,15.0882912,0.0001657,53.2193,4.1864,85.9364,274.1818,-8.085e-05,-1.574e-05,0.0,0 STARLINK-3702,1 52100U 22029N   23301.48788156 -.00001574  00000-0 -80850-4 0  9993,2 52100  53.2193   4.1864 0001657  85.9364 274.1818 15.08829120 90343,6917.914,95.438,540.925,538.632,0.0
52100.0,STARLINK-3702,PAYLOAD,2023-10-28 21:14:51,15.08838771,0.0001707,53.2198,2.4017,84.9768,275.1419,2.5234e-05,1.14e-06,0.0,0 STARLINK-3702,1 52100U 22029N   23301.88531446  .00000114  00000-0  25234-4 0  9997,2 52100  53.2198   2.4017 0001707  84.9768 275.1419 15.08838771 90409,6917.884,95.438,540.93,538.568,0.0
52100.0,STARLINK-3702,PAYLOAD,2023-10-29 11:33:18,15.088604,0.000158,53.2175,359.7257,82.0125,278.1047,0.00051878,7.983e-05,0.0,0 STARLINK-3702,1 52100U 22029N   23302.48146231  .00007983  00000-0  51878-3 0  9991,2 52100  53.2175 359.7257 0001580  82.0125 278.1047 15.08860400 90496,6917.818,95.436,540.776,538.59,0.0
52100.0,STARLINK-3702,PAYLOAD,2023-10-29 21:05:37,15.08847232,0.0001614,53.2169,357.9411,90.1464,269.9713,0.00034262,5.17e-05,0.0,0 STARLINK-3702,1 52100U 22029N   23302.87890789  .00005170  00000-0  34262-3 0  9992,2 52100  53.2169 357.9411 0001614  90.1464 269.9713 15.08847232 90558,6917.858,95.437,540.84,538.607,0.0
52100.0,STARLINK-3702,PAYLOAD,2023-10-30 12:59:29,15.08832165,0.000153,53.2162,354.9683,91.8715,268.2453,0.0014417,0.00022726,0.0,0 STARLINK-3702,1 52100U 22029N   23303.54131365  .00022726  00000-0  14417-2 0  9990,2 52100  53.2162 354.9683 0001530  91.8715 268.2453 15.08832165 90656,6917.904,95.438,540.828,538.711,0.0
52100.0,STARLINK-3702,PAYLOAD,2023-10-30 20:56:25,15.08832657,0.0001658,53.2173,353.4805,87.8785,272.2397,0.0012922,0.00020333,0.0,0 STARLINK-3702,1 52100U 22029N   23303.87251933  .00020333  00000-0  12922-2 0  9991,2 52100  53.2173 353.4805 0001658  87.8785 272.2397 15.08832657 90705,6917.903,95.438,540.915,538.621,0.0
52100.0,STARLINK-3702,PAYLOAD,2023-10-31 12:50:17,15.08838162,0.0001695,53.2172,350.5051,93.9776,266.141,0.00071997,0.00011188,0.0,0 STARLINK-3702,1 52100U 22029N   23304.53492317  .00011188  00000-0  71997-3 0  9994,2 52100  53.2172 350.5051 0001695  93.9776 266.1410 15.08838162 90800,6917.886,95.438,540.924,538.578,0.0
52100.0,STARLINK-3702,PAYLOAD,2023-10-31 20:47:13,15.08841114,0.0001719,53.2171,349.0179,91.8704,268.2485,0.00066619,0.00010331,0.0,0 STARLINK-3702,1 52100U 22029N   23304.86612398  .00010331  00000-0  66619-3 0  9997,2 52100  53.2171 349.0179 0001719  91.8704 268.2485 15.08841114 90859,6917.877,95.437,540.931,538.553,0.0
52100.0,STARLINK-3702,PAYLOAD,2023-11-01 09:30:17,15.08856437,0.0001707,53.2158,346.6399,89.0612,271.0576,0.0008025,0.00012513,0.0,0 STARLINK-3702,1 52100U 22029N   23305.39604012  .00012513  00000-0  80250-3 0  9991,2 52100  53.2158 346.6399 0001707  89.0612 271.0576 15.08856437 90931,6917.83,95.437,540.876,538.514,0.0
52100.0,STARLINK-3702,PAYLOAD,2023-11-02 12:31:50,15.08848781,0.0001692,53.2171,341.5845,92.2717,267.8469,0.00016246,2.299e-05,0.0,0 STARLINK-3702,1 52100U 22029N   23306.52211613  .00002299  00000-0  16246-3 0  9992,2 52100  53.2171 341.5845 0001692  92.2717 267.8469 15.08848781 91108,6917.854,95.437,540.889,538.548,0.0
52100.0,STARLINK-3702,PAYLOAD,2023-11-03 02:50:19,15.088353,0.0001599,53.2174,338.9064,94.3051,265.8124,-1.0685e-05,-4.58e-06,0.0,0 STARLINK-3702,1 52100U 22029N   23307.11828218 -.00000458  00000-0 -10685-4 0  9992,2 52100  53.2174 338.9064 0001599  94.3051 265.8124 15.08835300 91192,6917.895,95.438,540.866,538.654,0.0
52100.0,STARLINK-3702,PAYLOAD,2023-11-03 09:11:51,15.08843766,0.0001622,53.2175,337.7152,94.2767,265.8411,0.00013131,1.803e-05,0.0,0 STARLINK-3702,1 52100U 22029N   23307.38323789  .00001803  00000-0  13131-3 0  9995,2 52100  53.2175 337.7152 0001622  94.2767 265.8411 15.08843766 91237,6917.869,95.437,540.856,538.612,0.0
52100.0,STARLINK-3702,PAYLOAD,2023-11-03 18:44:10,15.08843727,0.0001871,53.2178,335.934,86.8425,273.2781,3.1016e-05,2.06e-06,0.0,0 STARLINK-3702,1 52100U 22029N   23307.78067782  .00000206  00000-0  31016-4 0  9996,2 52100  53.2178 335.9340 0001871  86.8425 273.2781 15.08843727 91299,6917.869,95.437,541.028,538.44,0.0
52100.0,STARLINK-3702,PAYLOAD,2023-11-03 23:30:20,15.0883748,0.0001838,53.218,335.0493,110.2477,249.8713,1.9764e-06,-2.57e-06,0.0,0 STARLINK-3702,1 52100U 22029N   23307.97940238 -.00000257  00000-0  19764-5 0  9997,2 52100  53.2180 335.0493 0001838 110.2477 249.8713 15.08837480 91321,6917.888,95.438,541.025,538.482,0.0
52100.0,STARLINK-3702,PAYLOAD,2023-11-04 09:02:39,15.08834784,0.0001853,53.2175,333.2639,109.461,250.6582,-4.3611e-05,-9.82e-06,0.0,0 STARLINK-3702,1 52100U 22029N   23308.37684407 -.00000982  00000-0 -43611-4 0  9998,2 52100  53.2175 333.2639 0001853 109.4610 250.6582 15.08834784 91387,6917.896,95.438,541.043,538.479,0.0
52100.0,STARLINK-3702,PAYLOAD,2023-11-04 18:34:57,15.08841609,0.0001625,53.2175,331.4776,99.6234,260.4942,2.0969e-05,4.6e-07,0.0,0 STARLINK-3702,1 52100U 22029N   23308.77428007  .00000046  00000-0  20969-4 0  9994,2 52100  53.2175 331.4776 0001625  99.6234 260.4942 15.08841609 91448,6917.875,95.437,540.865,538.616,0.0
52100.0,STARLINK-3702,PAYLOAD,2023-11-05 10:28:49,15.08850433,0.0001861,53.2168,328.4995,85.7443,274.3762,0.00033136,4.991e-05,0.0,0 STARLINK-3702,1 52100U 22029N   23309.43668064  .00004991  00000-0  33136-3 0  9999,2 52100  53.2168 328.4995 0001861  85.7443 274.3762 15.08850433 91549,6917.848,95.437,541.001,538.426,0.0
52100.0,STARLINK-3702,PAYLOAD,2023-11-05 23:11:54,15.08843721,0.0001633,53.2169,326.1258,95.4359,264.6819,0.00027353,4.068e-05,0.0,0 STARLINK-3702,1 52100U 22029N   23309.96660467  .00004068  00000-0  27353-3 0  9995,2 52100  53.2169 326.1258 0001633  95.4359 264.6819 15.08843721 91624,6917.869,95.437,540.864,538.604,0.0
52100.0,STARLINK-3702,PAYLOAD,2023-11-06 10:19:35,15.08886805,0.0001714,53.2162,324.0428,111.7023,248.4152,0.0020992,0.00033322,0.0,0 STARLINK-3702,1 52100U 22029N   23310.43027215  .00033322  00000-0  20992-2 0  9993,2 52100  53.2162 324.0428 0001714 111.7023 248.4152 15.08886805 91690,6917.737,95.435,540.788,538.417,0.0
52100.0,STARLINK-3702,PAYLOAD,2023-11-06 18:16:32,15.08839214,0.0002895,53.2167,322.5568,76.0054,284.126,0.00036029,5.45e-05,0.0,0 STARLINK-3702,1 52100U 22029N   23310.76148553  .00005450  00000-0  36029-3 0  9998,2 52100  53.2167 322.5568 0002895  76.0054 284.1260 15.08839214 91746,6917.883,95.438,541.751,537.745,0.0
52100.0,STARLINK-3702,PAYLOAD,2023-11-07 00:38:05,15.08795743,0.0001647,53.2154,321.3663,87.9032,272.2149,-0.00055157,-9.045e-05,0.0,0 STARLINK-3702,1 52100U 22029N   23311.02645229 -.00009045  00000-0 -55157-3 0  9999,2 52100  53.2154 321.3663 0001647  87.9032 272.2149 15.08795743 91782,6918.016,95.44,541.02,538.741,0.0
52100.0,STARLINK-3702,PAYLOAD,2023-11-07 10:10:25,15.08788482,0.0001179,53.2163,319.582,83.7149,276.3977,0.0022227,0.00035213,0.0,0 STARLINK-3702,1 52100U 22029N   23311.42390815  .00035213  00000-0  22227-2 0  9996,2 52100  53.2163 319.5820 0001179  83.7149 276.3977 15.08788482 91842,6918.038,95.441,540.719,539.087,0.0
52100.0,STARLINK-3702,PAYLOAD,2023-11-07 18:07:21,15.08823691,0.0001252,53.2172,318.0977,79.0448,281.0685,0.0025393,0.00040338,0.0,0 STARLINK-3702,1 52100U 22029N   23311.75511348  .00040338  00000-0  25393-2 0  9999,2 52100  53.2172 318.0977 0001252  79.0448 281.0685 15.08823691 91897,6917.93,95.439,540.661,538.929,0.0
52100.0,STARLINK-3702,PAYLOAD,2023-11-08 10:01:12,15.0889248,0.0001351,53.2168,315.1239,80.0166,280.0978,0.002835,0.00045186,0.0,0 STARLINK-3702,1 52100U 22029N   23312.41750306  .00045186  00000-0  28350-2 0  9994,2 52100  53.2168 315.1239 0001351  80.0166 280.0978 15.08892480 91997,6917.72,95.434,540.52,538.65,0.0
52100.0,STARLINK-3702,PAYLOAD,2023-11-08 17:58:07,15.08871656,0.0001491,53.2172,313.6352,88.9777,271.1386,0.0027193,0.00043293,0.0,0 STARLINK-3702,1 52100U 22029N   23312.74869882  .00043293  00000-0  27193-2 0  9991,2 52100  53.2172 313.6352 0001491  88.9777 271.1386 15.08871656 92044,6917.784,95.436,540.68,538.617,0.0
52100.0,STARLINK-3702,PAYLOAD,2023-11-09 03:30:25,15.08868741,0.0001175,53.2168,311.8506,103.6703,256.442,0.0011529,0.00018122,0.0,0 STARLINK-3702,1 52100U 22029N   23313.14613268  .00018122  00000-0  11529-2 0  9990,2 52100  53.2168 311.8506 0001175 103.6703 256.4420 15.08868741 92106,6917.793,95.436,540.47,538.845,0.0
